COMMENT,ORIGINATOR,NORAD_CAT_ID,OBJECT_NAME,OBJECT_TYPE,CLASSIFICATION_TYPE,INTLDES,EPOCH,EPOCH_MICROSECONDS,MEAN_MOTION,ECCENTRICITY,INCLINATION,RA_OF_ASC_NODE,ARG_OF_PERICENTER,MEAN_ANOMALY,EPHEMERIS_TYPE,ELEMENT_SET_NO,REV_AT_EPOCH,BSTAR,MEAN_MOTION_DOT,MEAN_MOTION_DDOT,FILE,TLE_LINE0,TLE_LINE1,TLE_LINE2,OBJECT_ID,OBJECT_NUMBER,SEMIMAJOR_AXIS,PERIOD,APOGEE,PERIGEE,DECAYED,date
GENERATED VIA SPACETRACK.ORG API,18 SPCS,48893,SPACEBEE-106,PAYLOAD,U,21059Q,2023/2/12 7:46,809728,15.22520736,0.000837,97.5794,178.2613,349.7525,10.3539,0,999,9033,0.0016248,0.00037793,0,3787692,0 SPACEBEE-106,1 48893U 21059Q   23043.32409502  .00037793  00000-0  16248-2 0  9998,2 48893  97.5794 178.2613 0008370 349.7525  10.3539 15.22520736 90335,2021-059Q,48893,6876.377,94.58,503.998,492.487,0,2023/4/3
GENERATED VIA SPACETRACK.ORG API,18 SPCS,48893,SPACEBEE-106,PAYLOAD,U,21059Q,2023/2/13 2:42,276864,15.22585087,0.0008339,97.5793,179.0567,347.1908,12.9115,0,999,9045,0.0017261,0.00040243,0,3789366,0 SPACEBEE-106,1 48893U 21059Q   23044.11274626  .00040243  00000-0  17261-2 0  9993,2 48893  97.5793 179.0567 0008339 347.1908  12.9115 15.22585087 90454,2021-059Q,48893,6876.184,94.576,503.783,492.314,0,2023/4/4
GENERATED VIA SPACETRACK.ORG API,18 SPCS,48893,SPACEBEE-106,PAYLOAD,U,21059Q,2023/2/13 15:19,114880,15.22622022,0.0008351,97.5793,179.5872,345.574,14.5256,0,999,9053,0.0015108,0.00035229,0,3789588,0 SPACEBEE-106,1 48893U 21059Q   23044.63849670  .00035229  00000-0  15108-2 0  9993,2 48893  97.5793 179.5872 0008351 345.5740  14.5256 15.22622022 90532,2021-059Q,48893,6876.072,94.574,503.68,492.195,0,2023/4/5
GENERATED VIA SPACETRACK.ORG API,18 SPCS,48893,SPACEBEE-106,PAYLOAD,U,21059Q,2023/2/14 14:58,567552,15.22695376,0.0008329,97.5793,180.582,342.5564,17.5385,0,999,9068,0.0015882,0.00037127,0,3791349,0 SPACEBEE-106,1 48893U 21059Q   23045.62424268  .00037127  00000-0  15882-2 0  9993,2 48893  97.5793 180.5820 0008329 342.5564  17.5385 15.22695376 90687,2021-059Q,48893,6875.852,94.569,503.443,491.99,0,2023/4/6
GENERATED VIA SPACETRACK.ORG API,18 SPCS,48893,SPACEBEE-106,PAYLOAD,U,21059Q,2023/2/15 2:01,473376,15.22727394,0.0008308,97.5791,181.0461,341.015,19.0775,0,999,9075,0.0015109,0.00035341,0,3792339,0 SPACEBEE-106,1 48893U 21059Q   23046.08424159  .00035341  00000-0  15109-2 0  9991,2 48893  97.5791 181.0461 0008308 341.0150  19.0775 15.22727394 90758,2021-059Q,48893,6875.755,94.567,503.332,491.908,0,2023/4/7
GENERATED VIA SPACETRACK.ORG API,18 SPCS,48893,SPACEBEE-106,PAYLOAD,U,21059Q,2023/2/15 8:19,912096,15.22748106,0.0008315,97.5789,181.3114,340.1575,19.9337,0,999,9079,0.0015993,0.00037446,0,3793706,0 SPACEBEE-106,1 48893U 21059Q   23046.34709389  .00037446  00000-0  15993-2 0  9990,2 48893  97.5789 181.3114 0008315 340.1575  19.9337 15.22748106 90793,2021-059Q,48893,6875.693,94.566,503.275,491.841,0,2023/4/8
GENERATED VIA SPACETRACK.ORG API,18 SPCS,48893,SPACEBEE-106,PAYLOAD,U,21059Q,2023/2/15 16:12,468448,15.22780279,0.0008323,97.579,181.6429,338.7119,21.377,0,999,9084,0.0019991,0.0004693,0,3794021,0 SPACEBEE-106,1 48893U 21059Q   23046.67565357  .00046930  00000-0  19991-2 0  9991,2 48893  97.5790 181.6429 0008323 338.7119  21.3770 15.22780279 90844,2021-059Q,48893,6875.596,94.564,503.183,491.738,0,2023/4/9
GENERATED VIA SPACETRACK.ORG API,18 SPCS,48893,SPACEBEE-106,PAYLOAD,U,21059Q,2023/2/15 20:56,731136,15.2279658,0.0008323,97.5789,181.8419,337.8668,22.2207,0,999,9087,0.0019098,0.00044839,0,3795153,0 SPACEBEE-106,1 48893U 21059Q   23046.87278624  .00044839  00000-0  19098-2 0  9995,2 48893  97.5789 181.8419 0008323 337.8668  22.2207 15.22796580 90872,2021-059Q,48893,6875.547,94.563,503.134,491.689,0,2023/4/10
GENERATED VIA SPACETRACK.ORG API,18 SPCS,48893,SPACEBEE-106,PAYLOAD,U,21059Q,2023/2/16 14:17,639040,15.22861658,0.0008333,97.579,182.5713,335.0193,25.0639,0,999,9098,0.0019222,0.0004522,0,3798293,0 SPACEBEE-106,1 48893U 21059Q   23047.59558610  .00045220  00000-0  19222-2 0  9995,2 48893  97.5790 182.5713 0008333 335.0193  25.0639 15.22861658 90984,2021-059Q,48893,6875.351,94.559,502.945,491.487,0,2023/4/11
GENERATED VIA SPACETRACK.ORG API,18 SPCS,48893,SPACEBEE-106,PAYLOAD,U,21059Q,2023/2/16 19:01,989344,15.22878026,0.0008376,97.5789,182.7702,334.1512,25.9304,0,999,9101,0.0018382,0.00043251,0,3798555,0 SPACEBEE-106,1 48893U 21059Q   23047.79270821  .00043251  00000-0  18382-2 0  9990,2 48893  97.5789 182.7702 0008376 334.1512  25.9304 15.22878026 91014,2021-059Q,48893,6875.302,94.558,502.925,491.408,0,2023/4/12
GENERATED VIA SPACETRACK.ORG API,18 SPCS,48893,SPACEBEE-106,PAYLOAD,U,21059Q,2023/2/16 22:10,84640,15.22890064,0.0008377,97.5789,182.9028,333.647,26.4339,0,999,9103,0.0018348,0.00043185,0,3799178,0 SPACEBEE-106,1 48893U 21059Q   23047.92412135  .00043185  00000-0  18348-2 0  9999,2 48893  97.5789 182.9028 0008377 333.6470  26.4339 15.22890064 91037,2021-059Q,48893,6875.265,94.557,502.89,491.371,0,2023/4/13
GENERATED VIA SPACETRACK.ORG API,18 SPCS,48893,SPACEBEE-106,PAYLOAD,U,21059Q,2023/2/17 7:38,25792,15.22915705,0.0008388,97.5791,183.3007,332.1718,27.9069,0,999,9109,0.0014778,0.00034756,0,3802730,0 SPACEBEE-106,1 48893U 21059Q   23048.31835678  .00034756  00000-0  14778-2 0  9991,2 48893  97.5791 183.3007 0008388 332.1718  27.9069 15.22915705 91095,2021-059Q,48893,6875.188,94.555,502.82,491.286,0,2023/4/14
GENERATED VIA SPACETRACK.ORG API,18 SPCS,48893,SPACEBEE-106,PAYLOAD,U,21059Q,2023/2/17 7:38,25792,15.22915705,0.0008388,97.5791,183.3007,332.1718,27.9069,0,999,9109,0.0014778,0.00034756,0,3803049,0 SPACEBEE-106,1 48893U 21059Q   23048.31835678  .00034756  00000-0  14778-2 0  9991,2 48893  97.5791 183.3007 0008388 332.1718  27.9069 15.22915705 91095,2021-059Q,48893,6875.188,94.555,502.82,491.286,0,2023/4/15
GENERATED VIA SPACETRACK.ORG API,18 SPCS,48893,SPACEBEE-106,PAYLOAD,U,21059Q,2023/2/17 20:15,47040,15.22949237,0.0008463,97.5793,183.8308,330.8935,29.1828,0,999,9117,0.0012464,0.0002931,0,3804075,0 SPACEBEE-106,1 48893U 21059Q   23048.84399360  .00029310  00000-0  12464-2 0  9992,2 48893  97.5793 183.8308 0008463 330.8935  29.1828 15.22949237 91179,2021-059Q,48893,6875.087,94.553,502.771,491.134,0,2023/4/16
GENERATED VIA SPACETRACK.ORG API,18 SPCS,48893,SPACEBEE-106,PAYLOAD,U,21059Q,2023/2/18 8:52,174048,15.22976256,0.0008422,97.5796,184.3618,328.9098,31.1639,0,999,9125,0.0010852,0.00025517,0,3805806,0 SPACEBEE-106,1 48893U 21059Q   23049.36962007  .00025517  00000-0  10852-2 0  9998,2 48893  97.5796 184.3618 0008422 328.9098  31.1639 15.22976256 91258,2021-059Q,48893,6875.006,94.552,502.661,491.081,0,2023/4/17
GENERATED VIA SPACETRACK.ORG API,18 SPCS,48893,SPACEBEE-106,PAYLOAD,U,21059Q,2023/2/18 8:52,174048,15.22976256,0.0008422,97.5796,184.3618,328.9098,31.1639,0,999,9125,0.0010852,0.00025517,0,3807124,0 SPACEBEE-106,1 48893U 21059Q   23049.36962007  .00025517  00000-0  10852-2 0  9998,2 48893  97.5796 184.3618 0008422 328.9098  31.1639 15.22976256 91258,2021-059Q,48893,6875.006,94.552,502.661,491.081,0,2023/4/18
GENERATED VIA SPACETRACK.ORG API,18 SPCS,48893,SPACEBEE-106,PAYLOAD,U,21059Q,2023/2/19 14:49,307168,15.23042418,0.0008278,97.5798,185.6219,324.1682,35.8998,0,999,9144,0.0010372,0.00024429,0,3811610,0 SPACEBEE-106,1 48893U 21059Q   23050.61794337  .00024429  00000-0  10372-2 0  9995,2 48893  97.5798 185.6219 0008278 324.1682  35.8998 15.23042418 91442,2021-059Q,48893,6874.807,94.548,502.363,490.981,0,2023/4/19
GENERATED VIA SPACETRACK.ORG API,18 SPCS,48893,SPACEBEE-106,PAYLOAD,U,21059Q,2023/2/19 19:33,675456,15.23052784,0.0008275,97.58,185.8208,323.0074,37.0591,0,999,9147,0.001057,0.00024905,0,3812029,0 SPACEBEE-106,1 48893U 21059Q   23050.81504254  .00024905  00000-0  10570-2 0  9993,2 48893  97.5800 185.8208 0008275 323.0074  37.0591 15.23052784 91479,2021-059Q,48893,6874.776,94.547,502.33,490.952,0,2023/4/20
GENERATED VIA SPACETRACK.ORG API,18 SPCS,48893,SPACEBEE-106,PAYLOAD,U,21059Q,2023/2/20 8:10,640224,15.23081581,0.0008324,97.5803,186.3518,321.4016,38.6624,0,999,9155,0.0010931,0.00025784,0,3815761,0 SPACEBEE-106,1 48893U 21059Q   23051.34063241  .00025784  00000-0  10931-2 0  9995,2 48893  97.5803 186.3518 0008324 321.4016  38.6624 15.23081581 91555,2021-059Q,48893,6874.689,94.545,502.277,490.832,0,2023/4/21
GENERATED VIA SPACETRACK.ORG API,18 SPCS,48893,SPACEBEE-106,PAYLOAD,U,21059Q,2023/2/20 22:21,74976,15.23112398,0.0008301,97.5805,186.9486,319.1163,40.945,0,999,9164,0.0011175,0.00026387,0,3817849,0 SPACEBEE-106,1 48893U 21059Q   23051.93191059  .00026387  00000-0  11175-2 0  9990,2 48893  97.5805 186.9486 0008301 319.1163  40.9450 15.23112398 91643,2021-059Q,48893,6874.596,94.543,502.168,490.755,0,2023/4/22
GENERATED VIA SPACETRACK.ORG API,18 SPCS,48893,SPACEBEE-106,PAYLOAD,U,21059Q,2023/2/21 7:49,36032,15.2313719,0.0008349,97.5806,187.3468,317.9243,42.1351,0,999,9170,0.0012373,0.00029257,0,3819803,0 SPACEBEE-106,1 48893U 21059Q   23052.32608838  .00029257  00000-0  12373-2 0  9992,2 48893  97.5806 187.3468 0008349 317.9243  42.1351 15.23137190 91704,2021-059Q,48893,6874.522,94.542,502.126,490.647,0,2023/4/23
GENERATED VIA SPACETRACK.ORG API,18 SPCS,48893,SPACEBEE-106,PAYLOAD,U,21059Q,2023/2/21 15:42,407360,15.23158853,0.000836,97.5808,187.6785,316.7007,43.3571,0,999,9175,0.0013132,0.00031083,0,3821329,0 SPACEBEE-106,1 48893U 21059Q   23052.65456490  .00031083  00000-0  13132-2 0  9997,2 48893  97.5808 187.6785 0008360 316.7007  43.3571 15.23158853 91750,2021-059Q,48893,6874.457,94.54,502.069,490.575,0,2023/4/24
GENERATED VIA SPACETRACK.ORG API,18 SPCS,48893,SPACEBEE-106,PAYLOAD,U,21059Q,2023/2/21 15:42,407360,15.23158853,0.000836,97.5808,187.6785,316.7007,43.3571,0,999,9175,0.0013132,0.00031083,0,3821727,0 SPACEBEE-106,1 48893U 21059Q   23052.65456490  .00031083  00000-0  13132-2 0  9997,2 48893  97.5808 187.6785 0008360 316.7007  43.3571 15.23158853 91750,2021-059Q,48893,6874.457,94.54,502.069,490.575,0,2023/4/25
